GLOBALSTAR M063         
1 26081U 00008A   25161.91921926 -.00000089  00000+0 -86808-4 0  9991
2 26081  51.9931 128.0788 0004801 308.0958  98.6073 11.86174929156831
GLOBALSTAR M062         
1 26082U 00008B   25161.84290438 -.00000110  00000+0 -86116-4 0  9998
2 26082  51.9835 114.4378 0007194  94.8045 282.6150 12.43468118495831
GLOBALSTAR M060         
1 26083U 00008C   25161.91579106  .00000104  00000+0  19376-2 0  9992
2 26083  52.0027  73.3440 0003528 102.0216 358.5755 12.17662908151601
GLOBALSTAR M064         
1 26084U 00008D   25161.92015786 -.00000048  00000+0  49657-3 0  9997
2 26084  52.0014 226.9800 0001167  59.1500 300.9447 11.88534691166350
GLOBALSTAR M065         
1 31571U 07020A   25161.67225267 -.00000071  00000+0  18229-3 0  9991
2 31571  51.9888 246.0983 0009711 293.3929 219.5626 12.62008810832580
GLOBALSTAR M069         
1 31573U 07020C   25161.90314039 -.00000046  00000+0  42855-3 0  9999
2 31573  51.9934 223.0235 0001638 146.9907  25.7144 12.23446292833353
GLOBALSTAR M072         
1 31574U 07020D   25161.87468390 -.00000072  00000+0  16200-3 0  9990
2 31574  51.9956   8.7749 0000826   3.8721   9.0244 11.91649551830719
GLOBALSTAR M071         
1 31576U 07020F   25161.67124809  .00000001  00000+0  91260-3 0  9994
2 31576  52.0055 249.0878 0001142 117.2992  51.0540 12.18254816494143
